{"type":"FeatureCollection","features":[{"type":"Feature","geometry":{"type":"MultiPolygon","coordinates":[[[[20.642778,58.413333],[19.833333,57],[20.420278,56.894722],[21.3075,56.917778],[22.305556,57.063056],[22.7475,57.426944],[23.180833,57.586389],[22.999167,57.702222],[22.907778,57.780556],[22.7075,57.940833],[22.583611,57.9275],[22.143333,57.779167],[21.916111,57.749444],[21.716667,57.786667],[21.646667,57.856667],[21.613333,57.895],[21.483333,58.116667],[20.642778,58.413333]]]]},"properties":{"id":"EV-NORTH","minFL":95,"maxFL":660}},{"type":"Feature","geometry":{"type":"MultiPolygon","coordinates":[[[[19.828333,56.999444],[18.0349,56.0707],[19.1537,56.151],[20.575833,56.078611],[20.666667,56.066667],[20.747778,56.067222],[20.865833,56.068056],[20.98,56.068611],[21.064444,56.069167],[21.093611,56.073889],[21.163197,56.085606],[21.179072,56.075347],[21.2051,56.0792],[21.217,56.0969],[21.2318,56.1133],[21.2356,56.1306],[21.226028,56.161692],[21.2477,56.1641],[21.2764,56.1768],[21.298,56.192],[21.3098,56.2074],[21.330928,56.218667],[21.354278,56.224822],[21.378333,56.227778],[21.417342,56.242039],[21.431594,56.240578],[21.4563,56.2626],[21.4821,56.2797],[21.500856,56.294894],[21.5453,56.2961],[21.561667,56.316389],[21.5828,56.3195],[21.6123,56.3216],[21.6482,56.3162],[21.6783,56.3105],[21.7115,56.3114],[21.737944,56.325508],[21.757653,56.336017],[21.7968,56.3494],[21.835728,56.3714],[21.850556,56.369722],[21.880664,56.363481],[21.934328,56.373008],[21.9699,56.3847],[21.997569,56.412633],[22.027508,56.417461],[22.068919,56.422031],[22.129956,56.431608],[22.165528,56.419397],[22.210344,56.423864],[22.235958,56.400842],[22.279019,56.403208],[22.319581,56.408325],[22.341069,56.394844],[22.354722,56.396667],[22.392114,56.400908],[22.423356,56.410078],[22.477581,56.4034],[22.509336,56.392589],[22.537181,56.3895],[22.566747,56.387325],[22.612778,56.382778],[22.305556,57.063056],[21.3075,56.917778],[20.420278,56.894722],[19.828333,56.999444]]]]},"properties":{"id":"EV-SOUTH","minFL":95,"maxFL":660}},{"type":"Feature","geometry":{"type":"MultiPolygon","coordinates":[[[[24.356666,57.874444],[24.356389,57.874444],[25.254167,57.105833],[25.546667,56.853889],[25.171667,56.479444],[25.365556,56.154444],[25.35505,56.147692],[25.3551,56.1477],[25.3904,56.1498],[25.4259,56.1473],[25.4745,56.1403],[25.5054,56.1492],[25.5343,56.1598],[25.563,56.1429],[25.5951,56.1335],[25.6271,56.1376],[25.6604,56.1414],[25.6818,56.1321],[25.695,56.106],[25.7099,56.0846],[25.743,56.0702],[25.7909,56.0592],[25.8176,56.051],[25.8354,56.0334],[25.8529,56.0191],[25.860278,55.999722],[25.9475,55.985556],[25.9475,55.985555],[25.9753,55.9824],[26.0079,55.9711],[26.0336,55.9606],[26.0518,55.9458],[26.0684,55.9312],[26.0837,55.9155],[26.1038,55.8988],[26.1289,55.8836],[26.1605,55.8716],[26.205,55.8555],[26.2235,55.8407],[26.2364,55.8195],[26.2437,55.7981],[26.2623,55.7762],[26.2867,55.7594],[26.308417,55.743469],[26.349506,55.7426],[26.366153,55.731172],[26.377583,55.705378],[26.403567,55.711319],[26.445769,55.706836],[26.483631,55.695636],[26.511272,55.683225],[26.530661,55.676539],[26.57285,55.680044],[26.597047,55.675247],[26.6265,55.6853],[26.630556,55.680556],[26.6485,55.7027],[26.6795,55.7079],[26.7067,55.7011],[26.7362,55.6912],[26.775,55.6837],[26.8081,55.6955],[26.8354,55.7057],[26.8655,55.7148],[26.8809,55.7362],[26.9001,55.7603],[26.9177,55.784],[26.9462,55.7981],[26.978055,55.812777],[26.9981,55.8307],[27.0278,55.8386],[27.0581,55.8342],[27.0977,55.8377],[27.1173,55.8513],[27.1546,55.8561],[27.1858,55.8481],[27.2024,55.8341],[27.2396,55.8191],[27.2668,55.801],[27.3025,55.7936],[27.3403,55.8041],[27.3706,55.8046],[27.4022,55.8],[27.4338,55.794],[27.4636,55.7913],[27.4933,55.7883],[27.5244,55.7861],[27.5564,55.7839],[27.5902,55.7833],[27.6129,55.7931],[27.6202,55.8126],[27.6298,55.8361],[27.6259,55.8591],[27.6259,55.8805],[27.6327,55.8959],[27.6501,55.9101],[27.6572,55.928],[27.6752,55.945],[27.7059,55.9575],[27.7374,55.9697],[27.7783,55.9806],[27.8076,55.9943],[27.8189,56.0139],[27.8246,56.0341],[27.8555,56.037],[27.8852,56.0445],[27.9255,56.0578],[27.9465,56.0737],[27.9623,56.0967],[27.9857,56.1073],[28.0127,56.1205],[28.02845,56.1205],[28.0442,56.1205],[28.0797,56.1331],[28.1064,56.1474],[28.146667,56.173333],[28.151389,56.165833],[28.1869,56.1774],[28.1875,56.1973],[28.2052,56.2094],[28.1893,56.2266],[28.2106,56.2421],[28.2291,56.2578],[28.2472,56.2793],[28.2336,56.2979],[28.2204,56.3139],[28.2091,56.3362],[28.1991,56.3523],[28.1813,56.368],[28.1756,56.3858],[28.1944,56.4056],[28.1884,56.4287],[28.1789,56.4498],[28.157,56.4681],[28.1425,56.478611],[28.1291,56.4872],[28.1329,56.5105],[28.1095,56.5216],[28.1223,56.5396],[28.1496,56.5521],[28.142,56.5717],[28.1188,56.5829],[28.0882,56.5857],[28.0569,56.5866],[28.0414,56.6025],[28.0331,56.6202],[28.0205,56.6391],[28.0174,56.6609],[27.9955,56.6771],[27.9832,56.6935],[27.9657,56.714],[27.938,56.73],[27.9143,56.7438],[27.901667,56.751667],[27.9173,56.7636],[27.9465,56.7722],[27.9531,56.7874],[27.9665,56.8047],[27.9769,56.82],[27.9475,56.8269],[27.9151,56.8278],[27.8936,56.8409],[27.8744,56.8636],[27.8521,56.8757],[27.8202,56.8763],[27.7933,56.8657],[27.7651,56.8585],[27.7216,56.8531],[27.6914,56.8396],[27.6708,56.8458],[27.6757,56.8657],[27.6726,56.8866],[27.6744,56.9107],[27.7089,56.9237],[27.7306,56.938],[27.7334,56.9585],[27.7413,56.9813],[27.7389,56.9979],[27.7165,57.0152],[27.7311,57.0298],[27.7383,57.0464],[27.7482,57.0647],[27.757,57.0815],[27.7306,57.0893],[27.7327,57.1029],[27.751,57.1186],[27.7759,57.1352],[27.8073,57.1483],[27.8247,57.1648],[27.8348,57.182],[27.8432,57.1993],[27.8524,57.2169],[27.8648,57.2359],[27.8728,57.2539],[27.8689,57.2741],[27.8601,57.2941],[27.8468,57.3096],[27.8181,57.323],[27.7864,57.3364],[27.7688,57.3519],[27.7379,57.3597],[27.7002,57.3709],[27.6784,57.3829],[27.6561,57.4005],[27.6187,57.4169],[27.5886,57.4222],[27.5584,57.4306],[27.5238,57.4398],[27.5124,57.4581],[27.5356,57.4699],[27.5571,57.4823],[27.5682,57.5011],[27.559,57.5163],[27.5502,57.5287],[27.5297,57.5395],[27.4937,57.5355],[27.4517,57.5283],[27.4181,57.5281],[27.3853,57.5307],[27.3561,57.5392],[27.351389,57.5175],[27.333333,57.516666],[27.2882,57.5499],[27.2483,57.546199],[27.226699,57.544102],[27.2051,57.542],[27.1621,57.5489],[27.1231,57.5598],[27.0884,57.573199],[27.0574,57.5896],[27.0329,57.602499],[27.0007,57.6156],[26.9667,57.619399],[26.9374,57.6276],[26.9112,57.6427],[26.8759,57.6272],[26.8549,57.6101],[26.8352,57.596],[26.8038,57.587299],[26.7727,57.5799],[26.7487,57.573199],[26.736,57.5867],[26.707,57.581299],[26.6961,57.564],[26.674,57.553699],[26.6384,57.5474],[26.6233,57.5299],[26.6072,57.5153],[26.5861,57.529699],[26.5569,57.521999],[26.5284,57.514499],[26.4941,57.5243],[26.4817,57.544699],[26.4779,57.5652],[26.4511,57.573599],[26.4175,57.5701],[26.388333,57.575],[26.3596,57.5825],[26.324,57.591799],[26.2921,57.5974],[26.2719,57.613199],[26.2534,57.627099],[26.24,57.640599],[26.2414,57.652999],[26.223,57.666],[26.2042,57.681],[26.1823,57.6963],[26.2005,57.7111],[26.1794,57.7264],[26.1454,57.7378],[26.1156,57.7471],[26.0853,57.7525],[26.0573,57.761],[26.0372,57.7756],[26.0283,57.7916],[26.0335,57.810999],[26.0513,57.8336],[26.0462,57.8484],[26.0142,57.853],[25.9886,57.8536],[25.9478,57.8487],[25.916111,57.853889],[25.8746,57.8584],[25.835,57.8683],[25.8015,57.8865],[25.7858,57.9037],[25.7505,57.9213],[25.7224,57.9215],[25.7079,57.906199],[25.6712,57.905999],[25.6481,57.9188],[25.6268,57.933599],[25.6017,57.9436],[25.5813,57.9502],[25.58,57.968],[25.549,57.9734],[25.5228,57.9705],[25.5093,57.980899],[25.4781,57.9787],[25.4548,57.989899],[25.4531,58.007699],[25.429899,58.0226],[25.3972,58.0309],[25.3615,58.035299],[25.3377,58.048799],[25.3143,58.0662],[25.2899,58.0782],[25.2634,58.0664],[25.2834,58.048799],[25.3024,58.0302],[25.3043,58.012],[25.2899,57.9947],[25.2593,57.9997],[25.2503,58.0166],[25.2191,58.026299],[25.2192,58.044699],[25.2127,58.0583],[25.2107,58.076599],[25.1866,58.0852],[25.1694,58.0728],[25.1413,58.0818],[25.1119,58.0773],[25.0917,58.064799],[25.0604,58.0538],[25.0447,58.038699],[25.0226,58.02],[25.004722,58.013333],[24.989,58.009799],[24.983611,58.010556],[24.9485,58.008299],[24.9157,57.998499],[24.8883,57.989499],[24.8546,57.9797],[24.8161,57.9868],[24.775,57.989499],[24.7545,57.9757],[24.7327,57.963599],[24.7106,57.9545],[24.6853,57.962499],[24.6491,57.9577],[24.6265,57.945599],[24.6027,57.9598],[24.5655,57.954],[24.5359,57.947099],[24.5161,57.9342],[24.4881,57.9265],[24.4636,57.9156],[24.4603,57.8937],[24.4461,57.8777],[24.4176,57.8704],[24.3859,57.8762],[24.366667,57.883333],[24.356666,57.874444]]]]},"properties":{"id":"EV-EEAST","minFL":95,"maxFL":660}},{"type":"Feature","geometry":{"type":"MultiPolygon","coordinates":[[[[22.461944,56.719722],[22.611326,56.386021],[22.612796,56.382765],[22.641934,56.362756],[22.641956,56.362743],[22.641981,56.362739],[22.662591,56.360974],[22.662839,56.360953],[22.663048,56.360818],[22.677128,56.351736],[22.67715,56.351724],[22.677176,56.351724],[22.691918,56.352471],[22.697384,56.352749],[22.697411,56.352751],[22.697433,56.352765],[22.72148,56.368662],[22.721761,56.368847],[22.722097,56.368825],[22.754685,56.366699],[22.76999,56.3657],[22.770009,56.365699],[22.8063,56.3647],[22.843377,56.363701],[22.8434,56.363701],[22.843408,56.363703],[22.8706,56.3731],[22.8834,56.3881],[22.9079,56.399],[22.9322,56.4067],[22.9639,56.4096],[22.9893,56.401],[22.989704,56.40058],[23.004126,56.38558],[23.0043,56.3854],[23.004368,56.385159],[23.009078,56.368479],[23.0091,56.3684],[23.009109,56.368319],[23.010378,56.357004],[23.011497,56.347025],[23.011501,56.347001],[23.011519,56.346985],[23.035603,56.327931],[23.045259,56.320293],[23.045278,56.320279],[23.045302,56.32028],[23.066049,56.322478],[23.069554,56.322849],[23.069933,56.322889],[23.070243,56.322666],[23.086147,56.311222],[23.094081,56.305514],[23.0941,56.305501],[23.094123,56.305505],[23.123776,56.312394],[23.123799,56.312401],[23.123821,56.312412],[23.126426,56.313918],[23.146774,56.325685],[23.1468,56.3257],[23.146826,56.325713],[23.171477,56.338088],[23.171499,56.338101],[23.171505,56.338125],[23.174742,56.354585],[23.174995,56.355874],[23.174999,56.3559],[23.174994,56.355926],[23.17233,56.367256],[23.172064,56.368389],[23.173224,56.368482],[23.206091,56.371109],[23.206131,56.371114],[23.224892,56.374182],[23.225,56.3742],[23.225109,56.374194],[23.260247,56.372224],[23.260308,56.372224],[23.271445,56.372975],[23.273275,56.373098],[23.2733,56.373101],[23.273324,56.373106],[23.306491,56.382124],[23.306617,56.382158],[23.306747,56.382159],[23.34048,56.3824],[23.3405,56.3824],[23.340519,56.382399],[23.34131,56.382374],[23.383632,56.381005],[23.3838,56.381],[23.383957,56.38094],[23.40618,56.372427],[23.413243,56.369722],[23.4133,56.3697],[23.413353,56.369672],[23.43878,56.356211],[23.4388,56.356201],[23.438822,56.356195],[23.477659,56.347809],[23.4777,56.3478],[23.47774,56.347788],[23.513374,56.336908],[23.5134,56.336901],[23.513427,56.336901],[23.5155,56.336965],[23.555272,56.338199],[23.555299,56.338202],[23.555326,56.33821],[23.574206,56.345367],[23.582972,56.34869],[23.583,56.3487],[23.583028,56.348709],[23.620914,56.360573],[23.621,56.3606],[23.621089,56.360611],[23.66363,56.365891],[23.6637,56.3659],[23.66377,56.365899],[23.699872,56.3653],[23.699899,56.365301],[23.699926,56.365308],[23.71612,56.370563],[23.716261,56.370608],[23.716409,56.370611],[23.746974,56.371218],[23.755548,56.371389],[23.755556,56.371389],[23.755563,56.371389],[23.759314,56.371407],[23.77709,56.371495],[23.778,56.3715],[23.77809,56.370595],[23.779575,56.355752],[23.7796,56.3555],[23.779502,56.355266],[23.766198,56.323517],[23.76619,56.323495],[23.766212,56.323487],[23.774475,56.321007],[23.774499,56.321001],[23.77452,56.321015],[23.802869,56.341456],[23.803172,56.341675],[23.803545,56.341641],[23.816486,56.340458],[23.842755,56.338058],[23.8428,56.338056],[23.865329,56.338028],[23.913544,56.337968],[23.9143,56.337967],[23.914505,56.337239],[23.916593,56.329824],[23.916601,56.329801],[23.916625,56.3298],[23.956489,56.3302],[23.9565,56.3302],[23.95651,56.3302],[24.018304,56.329537],[24.019128,56.329528],[24.019277,56.328718],[24.022654,56.310361],[24.022659,56.310337],[24.022681,56.310327],[24.038377,56.303801],[24.048685,56.299516],[24.049364,56.299233],[24.049297,56.298501],[24.047602,56.280025],[24.047601,56.280001],[24.047625,56.279999],[24.097187,56.27713],[24.097617,56.277106],[24.097894,56.276776],[24.107312,56.265581],[24.107406,56.265469],[24.107464,56.265336],[24.113915,56.250522],[24.113926,56.250501],[24.113949,56.2505],[24.176557,56.250661],[24.176583,56.250662],[24.176605,56.250677],[24.198486,56.266704],[24.200638,56.268281],[24.2008,56.2684],[24.200996,56.268447],[24.240652,56.277941],[24.240692,56.27795],[24.240732,56.277956],[24.263261,56.28145],[24.290581,56.285688],[24.290604,56.285693],[24.290597,56.285715],[24.285775,56.298879],[24.2853,56.300175],[24.286679,56.300223],[24.313442,56.301152],[24.317529,56.301294],[24.3177,56.3013],[24.317863,56.301248],[24.323308,56.299536],[24.343772,56.293103],[24.3441,56.293],[24.344295,56.292716],[24.358241,56.272468],[24.358256,56.272449],[24.35828,56.272453],[24.385831,56.278703],[24.386175,56.278781],[24.386492,56.278626],[24.411249,56.266536],[24.422583,56.261001],[24.422603,56.260993],[24.422625,56.260989],[24.45023,56.258205],[24.453914,56.257833],[24.453938,56.257832],[24.453956,56.257849],[24.461595,56.265882],[24.461833,56.266133],[24.462176,56.266183],[24.479687,56.268714],[24.483586,56.269277],[24.483636,56.269287],[24.511518,56.276251],[24.536767,56.282558],[24.536825,56.282572],[24.536884,56.28258],[24.57962,56.287994],[24.579643,56.287998],[24.579644,56.288021],[24.579501,56.308955],[24.5795,56.3091],[24.57954,56.30924],[24.582957,56.321052],[24.583973,56.324561],[24.5841,56.325],[24.584515,56.325191],[24.589045,56.327277],[24.604277,56.334289],[24.604299,56.334301],[24.60432,56.334314],[24.617098,56.343588],[24.622879,56.347785],[24.622899,56.347801],[24.622908,56.347824],[24.628392,56.364077],[24.6284,56.3641],[24.628409,56.364123],[24.630136,56.368527],[24.630278,56.368889],[24.630626,56.36906],[24.633218,56.370332],[24.646184,56.376694],[24.6464,56.3768],[24.64664,56.376796],[24.671782,56.376396],[24.677778,56.3763],[24.6778,56.376301],[24.677821,56.376307],[24.702343,56.385024],[24.703377,56.385392],[24.703399,56.3854],[24.703397,56.385423],[24.701762,56.400507],[24.701715,56.400937],[24.7016,56.402],[24.702668,56.402044],[24.73069,56.403199],[24.7307,56.4032],[24.73071,56.4032],[24.74875,56.403585],[24.763476,56.403899],[24.763524,56.403903],[24.792974,56.407397],[24.792999,56.407401],[24.793019,56.407418],[24.80758,56.420814],[24.808,56.4212],[24.808545,56.421036],[24.832578,56.413806],[24.8326,56.413801],[24.832622,56.413801],[24.858275,56.415498],[24.858298,56.415501],[24.858294,56.415524],[24.854375,56.430815],[24.8542,56.4315],[24.854787,56.431894],[24.870823,56.442648],[24.8709,56.4427],[24.870985,56.442737],[24.874388,56.444197],[24.891767,56.451657],[24.8921,56.4518],[24.892447,56.451696],[24.906968,56.447366],[24.918798,56.443839],[24.9196,56.4436],[24.919506,56.442769],[24.918016,56.429549],[24.918,56.4294],[24.91794,56.429263],[24.911447,56.414309],[24.911409,56.414222],[24.911401,56.4142],[24.911417,56.414184],[24.915551,56.410358],[24.927493,56.399306],[24.9275,56.3993],[24.927506,56.399294],[24.931417,56.395545],[24.941994,56.385405],[24.942,56.3854],[24.942005,56.385394],[24.95969,56.36791],[24.9597,56.3679],[24.95971,56.367889],[24.973766,56.353149],[24.9741,56.3528],[24.974033,56.352322],[24.971604,56.334827],[24.971601,56.3348],[24.971605,56.334773],[24.975695,56.313825],[24.975701,56.313801],[24.97572,56.313784],[24.99504,56.298547],[24.99508,56.298515],[24.995101,56.298501],[24.995122,56.298488],[25.003411,56.294308],[25.017566,56.287168],[25.0177,56.2871],[25.017808,56.286996],[25.027713,56.277472],[25.033282,56.272117],[25.033301,56.272101],[25.033323,56.272091],[25.05871,56.262349],[25.0591,56.2622],[25.059268,56.261817],[25.066492,56.245318],[25.066509,56.245282],[25.071092,56.236745],[25.073726,56.231836],[25.0738,56.2317],[25.073828,56.231548],[25.073828,56.231548],[25.077101,56.214097],[25.080695,56.195625],[25.080701,56.195601],[25.080722,56.195586],[25.089439,56.190274],[25.09988,56.183912],[25.0999,56.183901],[25.099923,56.183896],[25.13346,56.178007],[25.1335,56.178],[25.133539,56.177989],[25.151326,56.173355],[25.164173,56.170007],[25.1642,56.170002],[25.164228,56.170002],[25.195373,56.172398],[25.195399,56.172401],[25.195425,56.172408],[25.22349,56.180737],[25.2237,56.1808],[25.223917,56.180769],[25.252098,56.176729],[25.2523,56.1767],[25.252475,56.176594],[25.271822,56.164847],[25.2719,56.1648],[25.271968,56.164739],[25.275803,56.161323],[25.29018,56.148517],[25.2902,56.148501],[25.290225,56.148494],[25.320677,56.142104],[25.3207,56.142101],[25.320722,56.142103],[25.35505,56.147692],[25.365556,56.154444],[25.171667,56.479444],[25.546667,56.853889],[25.254167,57.105833],[24.356389,57.874444],[24.30444,57.897769],[24.299444,57.9],[24.261111,57.917222],[24.209444,57.899166],[24.208855,57.899167],[23.601738,57.899167],[23.601111,57.899166],[23.648611,57.782778],[23.582222,57.669722],[23.582222,57.669722],[23.582222,57.669722],[23.406111,57.593889],[23.240278,57.588333],[23.180833,57.586389],[23.180288,57.586188],[22.775467,57.437235],[22.647303,57.344444],[22.305556,57.063056],[22.379167,56.9025],[22.461944,56.719722]]]]},"properties":{"id":"EV-WEAST","minFL":285,"maxFL":660}},{"type":"Feature","geometry":{"type":"MultiPolygon","coordinates":[[[[23.406111,57.593889],[23.180833,57.586389],[22.7475,57.426944],[22.305556,57.063056],[22.612796,56.382765],[22.641934,56.362756],[22.641956,56.362743],[22.641981,56.362739],[22.662591,56.360974],[22.662688,56.360961],[22.662783,56.360939],[22.662875,56.360907],[22.662963,56.360867],[22.663048,56.360818],[22.677128,56.351736],[22.67715,56.351724],[22.677176,56.351724],[22.697384,56.352749],[22.697411,56.352751],[22.697433,56.352765],[22.72148,56.368662],[22.72156,56.368709],[22.721644,56.368749],[22.721731,56.368781],[22.72182,56.368805],[22.721912,56.36882],[22.722004,56.368827],[22.722097,56.368825],[22.76999,56.3657],[22.770009,56.365699],[22.8063,56.3647],[22.843377,56.363701],[22.8434,56.363701],[22.843422,56.363706],[22.988735,56.400856],[22.988829,56.400875],[22.988925,56.400885],[22.989021,56.400886],[22.989116,56.400878],[22.98921,56.400861],[22.989303,56.400834],[22.989392,56.400799],[22.989478,56.400756],[22.989559,56.400705],[22.989634,56.400646],[22.989704,56.40058],[23.004126,56.38558],[23.004191,56.385506],[23.004248,56.385426],[23.004297,56.385341],[23.004337,56.385252],[23.004368,56.385159],[23.009078,56.368479],[23.009097,56.368399],[23.009109,56.368319],[23.011497,56.347025],[23.011501,56.347001],[23.011519,56.346985],[23.045259,56.320293],[23.045278,56.320279],[23.045302,56.32028],[23.069554,56.322849],[23.069658,56.322854],[23.069762,56.322849],[23.069865,56.322833],[23.069965,56.322806],[23.070063,56.322769],[23.070156,56.322722],[23.070243,56.322666],[23.094081,56.305514],[23.0941,56.305501],[23.094123,56.305505],[23.123776,56.312394],[23.123799,56.312401],[23.123821,56.312412],[23.146774,56.325685],[23.146826,56.325713],[23.171477,56.338088],[23.171499,56.338101],[23.171505,56.338125],[23.174995,56.355874],[23.174999,56.3559],[23.174994,56.355926],[23.17233,56.367256],[23.172313,56.36735],[23.172304,56.367445],[23.172305,56.367541],[23.172315,56.367636],[23.172334,56.36773],[23.172362,56.367821],[23.172398,56.36791],[23.172443,56.367994],[23.172496,56.368074],[23.172556,56.368148],[23.172622,56.368217],[23.172696,56.368279],[23.172774,56.368333],[23.172858,56.36838],[23.172945,56.368418],[23.173036,56.368448],[23.173129,56.368469],[23.173224,56.368482],[23.206091,56.371109],[23.206131,56.371114],[23.224892,56.374182],[23.225,56.374194],[23.225109,56.374194],[23.260247,56.372224],[23.260308,56.372224],[23.273275,56.373098],[23.2733,56.373101],[23.273324,56.373106],[23.306491,56.382124],[23.306575,56.382143],[23.306661,56.382155],[23.306747,56.382159],[23.34048,56.3824],[23.340519,56.382399],[23.383632,56.381005],[23.383742,56.380996],[23.383851,56.380974],[23.383957,56.38094],[23.413243,56.369722],[23.413353,56.369672],[23.43878,56.356211],[23.4388,56.356201],[23.438822,56.356195],[23.477659,56.347809],[23.47774,56.347788],[23.513374,56.336908],[23.5134,56.336901],[23.513427,56.336901],[23.555272,56.338199],[23.555299,56.338202],[23.555326,56.33821],[23.582972,56.34869],[23.583028,56.348709],[23.620914,56.360573],[23.621001,56.360596],[23.621089,56.360611],[23.66363,56.365891],[23.66377,56.365899],[23.699872,56.3653],[23.699899,56.365301],[23.699926,56.365308],[23.71612,56.370563],[23.716215,56.370588],[23.716311,56.370605],[23.716409,56.370611],[23.755548,56.371389],[23.755563,56.371389],[23.77709,56.371495],[23.777189,56.371491],[23.777286,56.371477],[23.777381,56.371453],[23.777474,56.371421],[23.777563,56.371379],[23.777648,56.371329],[23.777727,56.37127],[23.7778,56.371205],[23.777866,56.371132],[23.777925,56.371053],[23.777976,56.370969],[23.778018,56.37088],[23.778052,56.370787],[23.778076,56.370692],[23.77809,56.370595],[23.779575,56.355752],[23.779579,56.355653],[23.779575,56.355554],[23.77956,56.355456],[23.779536,56.355359],[23.779502,56.355266],[23.766198,56.323517],[23.76619,56.323495],[23.766212,56.323487],[23.774475,56.321007],[23.774499,56.321001],[23.77452,56.321015],[23.802869,56.341456],[23.802955,56.341512],[23.803046,56.341558],[23.803141,56.341595],[23.80324,56.341622],[23.803341,56.341639],[23.803443,56.341645],[23.803545,56.341641],[23.842755,56.338058],[23.8428,56.338056],[23.913544,56.337968],[23.913643,56.337963],[23.913742,56.337948],[23.913838,56.337923],[23.913932,56.337889],[23.914021,56.337846],[23.914106,56.337794],[23.914186,56.337733],[23.914259,56.337666],[23.914324,56.337591],[23.914383,56.33751],[23.914432,56.337424],[23.914473,56.337333],[23.914505,56.337239],[23.916593,56.329824],[23.916601,56.329801],[23.916625,56.3298],[23.956489,56.3302],[23.95651,56.3302],[24.018304,56.329537],[24.018402,56.329531],[24.018499,56.329515],[24.018595,56.32949],[24.018687,56.329456],[24.018775,56.329413],[24.018859,56.329361],[24.018937,56.329302],[24.019009,56.329235],[24.019075,56.329161],[24.019132,56.329081],[24.019182,56.328996],[24.019222,56.328906],[24.019254,56.328813],[24.019277,56.328718],[24.022654,56.310361],[24.022659,56.310337],[24.022681,56.310327],[24.048685,56.299516],[24.048773,56.299474],[24.048857,56.299424],[24.048935,56.299366],[24.049007,56.2993],[24.049073,56.299228],[24.049131,56.29915],[24.049181,56.299066],[24.049223,56.298978],[24.049257,56.298887],[24.049281,56.298792],[24.049296,56.298696],[24.049301,56.298598],[24.049297,56.298501],[24.047602,56.280025],[24.047601,56.280001],[24.047625,56.279999],[24.097187,56.27713],[24.097288,56.277119],[24.097387,56.277098],[24.097484,56.277067],[24.097577,56.277026],[24.097665,56.276976],[24.097748,56.276917],[24.097825,56.27685],[24.097894,56.276776],[24.107312,56.265581],[24.10737,56.265504],[24.107421,56.265422],[24.107464,56.265336],[24.113915,56.250522],[24.113926,56.250501],[24.113949,56.2505],[24.176557,56.250661],[24.176583,56.250662],[24.176605,56.250677],[24.200638,56.268281],[24.200721,56.268335],[24.200808,56.268382],[24.2009,56.268419],[24.200996,56.268447],[24.240652,56.277941],[24.240732,56.277956],[24.290581,56.285688],[24.290604,56.285693],[24.290597,56.285715],[24.285775,56.298879],[24.285745,56.298974],[24.285725,56.299072],[24.285715,56.29917],[24.285715,56.29927],[24.285724,56.299368],[24.285743,56.299466],[24.285772,56.299561],[24.28581,56.299653],[24.285857,56.29974],[24.285913,56.299822],[24.285976,56.299899],[24.286047,56.299969],[24.286124,56.300031],[24.286207,56.300086],[24.286295,56.300132],[24.286387,56.300169],[24.286482,56.300196],[24.28658,56.300214],[24.286679,56.300223],[24.317529,56.301294],[24.317642,56.301291],[24.317754,56.301276],[24.317863,56.301248],[24.343772,56.293103],[24.34386,56.29307],[24.343946,56.293029],[24.344027,56.292981],[24.344103,56.292924],[24.344174,56.292861],[24.344238,56.292792],[24.344295,56.292716],[24.358241,56.272468],[24.358256,56.272449],[24.35828,56.272453],[24.385831,56.278703],[24.385927,56.278719],[24.386023,56.278727],[24.38612,56.278725],[24.386216,56.278714],[24.386311,56.278694],[24.386403,56.278664],[24.386492,56.278626],[24.422583,56.261001],[24.422603,56.260993],[24.422625,56.260989],[24.453914,56.257833],[24.453938,56.257832],[24.453956,56.257849],[24.461595,56.265882],[24.461663,56.265948],[24.461738,56.266007],[24.461818,56.266059],[24.461903,56.266102],[24.461991,56.266138],[24.462083,56.266165],[24.462176,56.266183],[24.483586,56.269277],[24.483636,56.269287],[24.536767,56.282558],[24.536884,56.28258],[24.57962,56.287994],[24.579643,56.287998],[24.579644,56.288021],[24.579501,56.308955],[24.579505,56.309051],[24.579518,56.309146],[24.57954,56.30924],[24.583973,56.324561],[24.584003,56.324651],[24.584043,56.324738],[24.58409,56.32482],[24.584145,56.324898],[24.584207,56.32497],[24.584276,56.325036],[24.584351,56.325096],[24.584431,56.325147],[24.584515,56.325191],[24.604277,56.334289],[24.604299,56.334301],[24.60432,56.334314],[24.622879,56.347785],[24.622899,56.347801],[24.622908,56.347824],[24.628392,56.364077],[24.628409,56.364123],[24.630136,56.368527],[24.630174,56.368612],[24.630219,56.368693],[24.630272,56.368769],[24.630331,56.36884],[24.630397,56.368905],[24.630469,56.368963],[24.630545,56.369015],[24.630626,56.36906],[24.646184,56.376694],[24.64627,56.376732],[24.64636,56.376761],[24.646452,56.376781],[24.646546,56.376793],[24.64664,56.376796],[24.677778,56.3763],[24.6778,56.376301],[24.677821,56.376307],[24.703377,56.385392],[24.703399,56.3854],[24.703397,56.385423],[24.701715,56.400937],[24.701709,56.401033],[24.701713,56.401129],[24.701725,56.401225],[24.701747,56.401319],[24.701778,56.40141],[24.701818,56.401498],[24.701865,56.401581],[24.701921,56.40166],[24.701984,56.401733],[24.702053,56.4018],[24.702129,56.401859],[24.70221,56.401911],[24.702295,56.401955],[24.702385,56.401991],[24.702477,56.402018],[24.702572,56.402035],[24.702668,56.402044],[24.73069,56.403199],[24.73071,56.4032],[24.763476,56.403899],[24.763524,56.403903],[24.792974,56.407397],[24.792999,56.407401],[24.793019,56.407418],[24.80758,56.420814],[24.807653,56.420874],[24.80773,56.420928],[24.807812,56.420973],[24.807899,56.421011],[24.807988,56.421041],[24.80808,56.421062],[24.808173,56.421074],[24.808267,56.421078],[24.808361,56.421073],[24.808454,56.421058],[24.808545,56.421036],[24.832578,56.413806],[24.8326,56.413801],[24.832622,56.413801],[24.858275,56.415498],[24.858298,56.415501],[24.858294,56.415524],[24.854375,56.430815],[24.854356,56.430907],[24.854346,56.431002],[24.854344,56.431096],[24.854352,56.431191],[24.854369,56.431284],[24.854394,56.431375],[24.854428,56.431463],[24.85447,56.431548],[24.854519,56.431629],[24.854577,56.431704],[24.854641,56.431774],[24.854711,56.431837],[24.854787,56.431894],[24.870823,56.442648],[24.870902,56.442696],[24.870985,56.442737],[24.891767,56.451657],[24.89186,56.451691],[24.891956,56.451717],[24.892054,56.451732],[24.892153,56.451738],[24.892252,56.451734],[24.892351,56.45172],[24.892447,56.451696],[24.918798,56.443839],[24.918892,56.443806],[24.918982,56.443764],[24.919067,56.443713],[24.919147,56.443653],[24.919221,56.443586],[24.919287,56.443513],[24.919346,56.443432],[24.919397,56.443347],[24.919439,56.443257],[24.919472,56.443163],[24.919495,56.443066],[24.919509,56.442967],[24.919512,56.442868],[24.919506,56.442769],[24.918016,56.429549],[24.918001,56.429451],[24.917975,56.429355],[24.91794,56.429263],[24.911409,56.414222],[24.911401,56.4142],[24.911417,56.414184],[24.927493,56.399306],[24.927506,56.399294],[24.941994,56.385405],[24.942005,56.385394],[24.95969,56.36791],[24.95971,56.367889],[24.973766,56.353149],[24.973832,56.353074],[24.973889,56.352992],[24.973938,56.352905],[24.973978,56.352813],[24.974009,56.352718],[24.97403,56.35262],[24.974041,56.352521],[24.974042,56.352421],[24.974033,56.352322],[24.971604,56.334827],[24.971601,56.3348],[24.971605,56.334773],[24.975695,56.313825],[24.975701,56.313801],[24.97572,56.313784],[24.99508,56.298515],[24.995101,56.298501],[24.995122,56.298488],[25.017566,56.287168],[25.017652,56.287119],[25.017733,56.287061],[25.017808,56.286996],[25.033282,56.272117],[25.033301,56.272101],[25.033323,56.272091],[25.05871,56.262349],[25.0588,56.262309],[25.058886,56.262261],[25.058967,56.262204],[25.059042,56.262139],[25.05911,56.262067],[25.059171,56.261989],[25.059224,56.261905],[25.059268,56.261817],[25.066492,56.245318],[25.066509,56.245282],[25.073726,56.231836],[25.07377,56.231744],[25.073804,56.231647],[25.073828,56.231548],[25.077101,56.214097],[25.080695,56.195625],[25.080701,56.195601],[25.080722,56.195586],[25.09988,56.183912],[25.0999,56.183901],[25.099923,56.183896],[25.13346,56.178007],[25.133539,56.177989],[25.164173,56.170007],[25.1642,56.170002],[25.164228,56.170002],[25.195373,56.172398],[25.195399,56.172401],[25.195425,56.172408],[25.22349,56.180737],[25.223595,56.180762],[25.223702,56.180776],[25.223809,56.180778],[25.223917,56.180769],[25.252098,56.176729],[25.252197,56.176709],[25.252293,56.17668],[25.252386,56.176642],[25.252475,56.176594],[25.271822,56.164847],[25.271897,56.164796],[25.271968,56.164739],[25.29018,56.148517],[25.2902,56.148501],[25.290225,56.148494],[25.320677,56.142104],[25.3207,56.142101],[25.320722,56.142103],[25.35505,56.147692],[25.365556,56.154444],[25.171667,56.479444],[25.546667,56.853889],[25.254167,57.105833],[24.356389,57.874444],[24.261111,57.917222],[24.209444,57.899167],[23.601111,57.899167],[23.648611,57.782778],[23.582222,57.669722],[23.406111,57.593889]],[[23.223897,56.942476],[23.22389,56.9425],[23.223896,56.942524],[23.2626,57.080324],[23.262622,57.08042],[23.262635,57.080517],[23.262637,57.080616],[23.26263,57.080714],[23.262614,57.080811],[23.262588,57.080906],[23.262552,57.080998],[23.262508,57.081086],[23.262455,57.081169],[23.262395,57.081247],[23.262327,57.081318],[23.262252,57.081383],[23.262172,57.081439],[23.262086,57.081488],[23.261996,57.081528],[23.261902,57.081558],[23.261806,57.08158],[23.261708,57.081591],[23.26161,57.081594],[23.261511,57.081586],[23.261414,57.081569],[23.260706,57.081407],[23.260685,57.081403],[23.260697,57.081421],[23.265879,57.088083],[23.265886,57.088092],[23.271296,57.094719],[23.271303,57.094728],[23.276926,57.101302],[23.276934,57.101311],[23.28277,57.107831],[23.282777,57.107839],[23.288824,57.114303],[23.288832,57.114311],[23.295088,57.120716],[23.295095,57.120724],[23.301559,57.127069],[23.301567,57.127076],[23.308236,57.133359],[23.308243,57.133366],[23.315116,57.139584],[23.315123,57.139591],[23.322197,57.145744],[23.322205,57.14575],[23.329479,57.151834],[23.329486,57.15184],[23.336957,57.157855],[23.336964,57.15786],[23.344631,57.163803],[23.344638,57.163808],[23.352497,57.169677],[23.352504,57.169682],[23.360553,57.175475],[23.36056,57.17548],[23.368798,57.181196],[23.368805,57.1812],[23.377228,57.186837],[23.377235,57.186841],[23.385841,57.192397],[23.385848,57.192401],[23.394634,57.197874],[23.394641,57.197878],[23.403605,57.203267],[23.403612,57.203271],[23.412751,57.208573],[23.412758,57.208577],[23.42207,57.213791],[23.422076,57.213795],[23.431557,57.21892],[23.431564,57.218923],[23.441211,57.223958],[23.441218,57.223961],[23.451029,57.228902],[23.451035,57.228905],[23.461007,57.233753],[23.461013,57.233756],[23.471143,57.238507],[23.471149,57.23851],[23.481433,57.243165],[23.481439,57.243167],[23.491874,57.247723],[23.491881,57.247726],[23.502464,57.252182],[23.50247,57.252184],[23.513198,57.256539],[23.513204,57.256541],[23.524073,57.260793],[23.524079,57.260795],[23.535087,57.264943],[23.535093,57.264945],[23.546235,57.268986],[23.546241,57.268988],[23.557515,57.272924],[23.557521,57.272926],[23.568922,57.276753],[23.568928,57.276755],[23.580454,57.280473],[23.580459,57.280475],[23.592106,57.284083],[23.592112,57.284084],[23.603875,57.287581],[23.603881,57.287582],[23.615758,57.290966],[23.615763,57.290968],[23.62775,57.294238],[23.627755,57.294239],[23.639848,57.297395],[23.639854,57.297396],[23.652049,57.300436],[23.652054,57.300437],[23.664347,57.30336],[23.664353,57.303362],[23.676741,57.306167],[23.676746,57.306169],[23.689224,57.308856],[23.68923,57.308857],[23.701795,57.311425],[23.7018,57.311426],[23.714449,57.313874],[23.714454,57.313875],[23.727181,57.316202],[23.727186,57.316203],[23.739988,57.318408],[23.739993,57.318409],[23.752866,57.320492],[23.752871,57.320493],[23.76581,57.322453],[23.765815,57.322454],[23.778815,57.32429],[23.791881,57.326004],[23.805002,57.327592],[23.818173,57.329055],[23.83139,57.330393],[23.84465,57.331605],[23.857947,57.33269],[23.871279,57.333647],[23.884639,57.334479],[23.898025,57.335182],[23.911433,57.335758],[23.924857,57.336207],[23.938294,57.336527],[23.951739,57.336719],[23.965189,57.336783],[23.978639,57.336719],[23.992084,57.336527],[24.005521,57.336207],[24.018945,57.335758],[24.032352,57.335183],[24.045739,57.334479],[24.059099,57.333648],[24.07243,57.33269],[24.085728,57.331605],[24.098987,57.330394],[24.112205,57.329056],[24.125376,57.327593],[24.138496,57.326005],[24.151563,57.324292],[24.164572,57.322454],[24.164577,57.322453],[24.177517,57.320493],[24.177522,57.320492],[24.190395,57.318409],[24.1904,57.318408],[24.203202,57.316203],[24.203207,57.316202],[24.215934,57.313875],[24.215939,57.313874],[24.228587,57.311426],[24.228593,57.311425],[24.241158,57.308857],[24.241163,57.308856],[24.253642,57.306169],[24.253647,57.306167],[24.266035,57.303362],[24.26604,57.30336],[24.278333,57.300437],[24.278339,57.300436],[24.290534,57.297396],[24.290539,57.297395],[24.302632,57.294239],[24.302637,57.294238],[24.314624,57.290968],[24.31463,57.290966],[24.326507,57.287582],[24.326512,57.287581],[24.338276,57.284084],[24.338281,57.284083],[24.349928,57.280475],[24.349934,57.280473],[24.36146,57.276755],[24.361465,57.276753],[24.372867,57.272926],[24.372873,57.272924],[24.384147,57.268988],[24.384152,57.268986],[24.395295,57.264945],[24.395301,57.264943],[24.406308,57.260795],[24.406314,57.260793],[24.417184,57.256541],[24.41719,57.256539],[24.427918,57.252184],[24.427924,57.252182],[24.438507,57.247726],[24.438513,57.247723],[24.448949,57.243167],[24.448955,57.243165],[24.459239,57.23851],[24.459245,57.238507],[24.469374,57.233756],[24.469381,57.233753],[24.479352,57.228905],[24.479359,57.228902],[24.48917,57.223961],[24.489177,57.223958],[24.498824,57.218923],[24.49883,57.21892],[24.508312,57.213795],[24.508318,57.213791],[24.51763,57.208577],[24.517636,57.208573],[24.526776,57.203271],[24.526782,57.203267],[24.535747,57.197878],[24.535754,57.197874],[24.54454,57.192401],[24.544547,57.192397],[24.553153,57.186841],[24.55316,57.186837],[24.561583,57.1812],[24.56159,57.181196],[24.569827,57.17548],[24.569834,57.175475],[24.577884,57.169682],[24.577891,57.169677],[24.58575,57.163808],[24.585757,57.163803],[24.593423,57.15786],[24.593431,57.157855],[24.600902,57.15184],[24.600909,57.151834],[24.608183,57.14575],[24.60819,57.145744],[24.615013,57.13981],[24.615086,57.139752],[24.615164,57.139701],[24.615247,57.139658],[24.615333,57.139623],[24.615422,57.139595],[24.615513,57.139576],[24.615605,57.139566],[24.721921,57.132779],[24.721943,57.132777],[24.721939,57.132754],[24.705279,57.056949],[24.705277,57.05694],[24.691389,56.990834],[24.691389,56.990832],[24.682778,56.949445],[24.682778,56.949443],[24.660017,56.838972],[24.660004,56.838888],[24.659997,56.838805],[24.658057,56.783085],[24.658054,56.783056],[24.658048,56.783027],[24.617501,56.635839],[24.617499,56.635828],[24.606667,56.594725],[24.58889,56.528614],[24.588888,56.528609],[24.572228,56.465302],[24.572221,56.465279],[24.572198,56.465279],[23.873341,56.508005],[23.873336,56.508005],[23.860298,56.508942],[23.847284,56.510003],[23.834305,56.511188],[23.821365,56.512496],[23.808467,56.513928],[23.795615,56.515482],[23.782813,56.517159],[23.770065,56.518957],[23.757372,56.520876],[23.757367,56.520877],[23.744742,56.522916],[23.744738,56.522917],[23.732178,56.525076],[23.732173,56.525077],[23.719683,56.527355],[23.719678,56.527356],[23.70726,56.529753],[23.707255,56.529754],[23.694913,56.532269],[23.694908,56.532271],[23.682646,56.534903],[23.682641,56.534904],[23.670463,56.537652],[23.670457,56.537653],[23.658366,56.540517],[23.658361,56.540518],[23.64636,56.543497],[23.646355,56.543499],[23.634448,56.546591],[23.634443,56.546593],[23.622635,56.549798],[23.622629,56.5498],[23.610922,56.553118],[23.610917,56.553119],[23.599314,56.556548],[23.599309,56.556549],[23.587815,56.560088],[23.587809,56.560089],[23.576427,56.563737],[23.576421,56.563739],[23.565154,56.567494],[23.565149,56.567496],[23.554,56.571358],[23.553994,56.57136],[23.542967,56.575328],[23.542962,56.57533],[23.53206,56.579402],[23.532054,56.579404],[23.521281,56.583579],[23.521275,56.583581],[23.510634,56.587858],[23.510628,56.587861],[23.500121,56.592239],[23.500115,56.592241],[23.489746,56.596718],[23.48974,56.596721],[23.479513,56.601296],[23.479507,56.601299],[23.469423,56.605971],[23.469417,56.605974],[23.459481,56.610741],[23.459475,56.610744],[23.44969,56.615605],[23.449684,56.615608],[23.440051,56.620562],[23.440045,56.620565],[23.430568,56.625609],[23.430562,56.625613],[23.421245,56.630747],[23.421239,56.63075],[23.412084,56.635972],[23.412077,56.635976],[23.403087,56.641283],[23.40308,56.641287],[23.394257,56.64668],[23.394251,56.646684],[23.385598,56.65216],[23.385591,56.652164],[23.377111,56.657722],[23.377105,56.657726],[23.3688,56.663363],[23.368794,56.663368],[23.360667,56.669083],[23.36066,56.669088],[23.352714,56.67488],[23.352707,56.674885],[23.344944,56.680751],[23.344937,56.680756],[23.33736,56.686696],[23.337353,56.686701],[23.329963,56.692712],[23.329956,56.692717],[23.322756,56.698797],[23.322749,56.698803],[23.315741,56.70495],[23.315734,56.704957],[23.308921,56.711169],[23.308913,56.711176],[23.302297,56.717452],[23.30229,56.717459],[23.295885,56.723784],[23.295871,56.7238],[23.295892,56.723802],[23.296186,56.723818],[23.296283,56.723828],[23.296377,56.723847],[23.29647,56.723876],[23.29656,56.723913],[23.296645,56.723958],[23.296726,56.724012],[23.296801,56.724073],[23.29687,56.724141],[23.296932,56.724216],[23.296986,56.724296],[23.297033,56.724381],[23.29707,56.72447],[23.2971,56.724563],[23.29712,56.724658],[23.29713,56.724754],[23.297132,56.724851],[23.297124,56.724947],[23.297107,56.725043],[23.29708,56.725136],[23.223897,56.942476]]]]},"properties":{"id":"EV-TMA-AL","minFL":30,"maxFL":95}},{"type":"Feature","geometry":{"type":"MultiPolygon","coordinates":[[[[23.180833,57.586389],[22.7475,57.426944],[22.305556,57.063056],[22.612796,56.382765],[22.641934,56.362756],[22.641956,56.362743],[22.641981,56.362739],[22.662591,56.360974],[22.662688,56.360961],[22.662783,56.360939],[22.662875,56.360907],[22.662963,56.360867],[22.663048,56.360818],[22.677128,56.351736],[22.67715,56.351724],[22.677176,56.351724],[22.697384,56.352749],[22.697411,56.352751],[22.697433,56.352765],[22.72148,56.368662],[22.72156,56.368709],[22.721644,56.368749],[22.721731,56.368781],[22.72182,56.368805],[22.721912,56.36882],[22.722004,56.368827],[22.722097,56.368825],[22.76999,56.3657],[22.770009,56.365699],[22.8063,56.3647],[22.843377,56.363701],[22.8434,56.363701],[22.843422,56.363706],[22.988735,56.400856],[22.988829,56.400875],[22.988925,56.400885],[22.989021,56.400886],[22.989116,56.400878],[22.98921,56.400861],[22.989303,56.400834],[22.989392,56.400799],[22.989478,56.400756],[22.989559,56.400705],[22.989634,56.400646],[22.989704,56.40058],[23.004126,56.38558],[23.004191,56.385506],[23.004248,56.385426],[23.004297,56.385341],[23.004337,56.385252],[23.004368,56.385159],[23.009078,56.368479],[23.009097,56.368399],[23.009109,56.368319],[23.011497,56.347025],[23.011501,56.347001],[23.011519,56.346985],[23.045259,56.320293],[23.045278,56.320279],[23.045302,56.32028],[23.069554,56.322849],[23.069658,56.322854],[23.069762,56.322849],[23.069865,56.322833],[23.069965,56.322806],[23.070063,56.322769],[23.070156,56.322722],[23.070243,56.322666],[23.094081,56.305514],[23.0941,56.305501],[23.094123,56.305505],[23.123776,56.312394],[23.123799,56.312401],[23.123821,56.312412],[23.146774,56.325685],[23.146826,56.325713],[23.171477,56.338088],[23.171499,56.338101],[23.171505,56.338125],[23.174995,56.355874],[23.174999,56.3559],[23.174994,56.355926],[23.17233,56.367256],[23.172313,56.36735],[23.172304,56.367445],[23.172305,56.367541],[23.172315,56.367636],[23.172334,56.36773],[23.172362,56.367821],[23.172398,56.36791],[23.172443,56.367994],[23.172496,56.368074],[23.172556,56.368148],[23.172622,56.368217],[23.172696,56.368279],[23.172774,56.368333],[23.172858,56.36838],[23.172945,56.368418],[23.173036,56.368448],[23.173129,56.368469],[23.173224,56.368482],[23.206091,56.371109],[23.206131,56.371114],[23.224892,56.374182],[23.225,56.374194],[23.225109,56.374194],[23.260247,56.372224],[23.260308,56.372224],[23.273275,56.373098],[23.2733,56.373101],[23.273324,56.373106],[23.306491,56.382124],[23.306575,56.382143],[23.306661,56.382155],[23.306747,56.382159],[23.34048,56.3824],[23.340519,56.382399],[23.383632,56.381005],[23.383742,56.380996],[23.383851,56.380974],[23.383957,56.38094],[23.413243,56.369722],[23.413353,56.369672],[23.43878,56.356211],[23.4388,56.356201],[23.438822,56.356195],[23.477659,56.347809],[23.47774,56.347788],[23.513374,56.336908],[23.5134,56.336901],[23.513427,56.336901],[23.555272,56.338199],[23.555299,56.338202],[23.555326,56.33821],[23.582972,56.34869],[23.583028,56.348709],[23.620914,56.360573],[23.621001,56.360596],[23.621089,56.360611],[23.66363,56.365891],[23.66377,56.365899],[23.699872,56.3653],[23.699899,56.365301],[23.699926,56.365308],[23.71612,56.370563],[23.716215,56.370588],[23.716311,56.370605],[23.716409,56.370611],[23.755548,56.371389],[23.755563,56.371389],[23.77709,56.371495],[23.777189,56.371491],[23.777286,56.371477],[23.777381,56.371453],[23.777474,56.371421],[23.777563,56.371379],[23.777648,56.371329],[23.777727,56.37127],[23.7778,56.371205],[23.777866,56.371132],[23.777925,56.371053],[23.777976,56.370969],[23.778018,56.37088],[23.778052,56.370787],[23.778076,56.370692],[23.77809,56.370595],[23.779575,56.355752],[23.779579,56.355653],[23.779575,56.355554],[23.77956,56.355456],[23.779536,56.355359],[23.779502,56.355266],[23.766198,56.323517],[23.76619,56.323495],[23.766212,56.323487],[23.774475,56.321007],[23.774499,56.321001],[23.77452,56.321015],[23.802869,56.341456],[23.802955,56.341512],[23.803046,56.341558],[23.803141,56.341595],[23.80324,56.341622],[23.803341,56.341639],[23.803443,56.341645],[23.803545,56.341641],[23.842755,56.338058],[23.8428,56.338056],[23.913544,56.337968],[23.913643,56.337963],[23.913742,56.337948],[23.913838,56.337923],[23.913932,56.337889],[23.914021,56.337846],[23.914106,56.337794],[23.914186,56.337733],[23.914259,56.337666],[23.914324,56.337591],[23.914383,56.33751],[23.914432,56.337424],[23.914473,56.337333],[23.914505,56.337239],[23.916593,56.329824],[23.916601,56.329801],[23.916625,56.3298],[23.956489,56.3302],[23.95651,56.3302],[24.018304,56.329537],[24.018402,56.329531],[24.018499,56.329515],[24.018595,56.32949],[24.018687,56.329456],[24.018775,56.329413],[24.018859,56.329361],[24.018937,56.329302],[24.019009,56.329235],[24.019075,56.329161],[24.019132,56.329081],[24.019182,56.328996],[24.019222,56.328906],[24.019254,56.328813],[24.019277,56.328718],[24.022654,56.310361],[24.022659,56.310337],[24.022681,56.310327],[24.048685,56.299516],[24.048773,56.299474],[24.048857,56.299424],[24.048935,56.299366],[24.049007,56.2993],[24.049073,56.299228],[24.049131,56.29915],[24.049181,56.299066],[24.049223,56.298978],[24.049257,56.298887],[24.049281,56.298792],[24.049296,56.298696],[24.049301,56.298598],[24.049297,56.298501],[24.047602,56.280025],[24.047601,56.280001],[24.047625,56.279999],[24.097187,56.27713],[24.097288,56.277119],[24.097387,56.277098],[24.097484,56.277067],[24.097577,56.277026],[24.097665,56.276976],[24.097748,56.276917],[24.097825,56.27685],[24.097894,56.276776],[24.107312,56.265581],[24.10737,56.265504],[24.107421,56.265422],[24.107464,56.265336],[24.113915,56.250522],[24.113926,56.250501],[24.113949,56.2505],[24.176557,56.250661],[24.176583,56.250662],[24.176605,56.250677],[24.200638,56.268281],[24.200721,56.268335],[24.200808,56.268382],[24.2009,56.268419],[24.200996,56.268447],[24.240652,56.277941],[24.240732,56.277956],[24.290581,56.285688],[24.290604,56.285693],[24.290597,56.285715],[24.285775,56.298879],[24.285745,56.298974],[24.285725,56.299072],[24.285715,56.29917],[24.285715,56.29927],[24.285724,56.299368],[24.285743,56.299466],[24.285772,56.299561],[24.28581,56.299653],[24.285857,56.29974],[24.285913,56.299822],[24.285976,56.299899],[24.286047,56.299969],[24.286124,56.300031],[24.286207,56.300086],[24.286295,56.300132],[24.286387,56.300169],[24.286482,56.300196],[24.28658,56.300214],[24.286679,56.300223],[24.317529,56.301294],[24.317642,56.301291],[24.317754,56.301276],[24.317863,56.301248],[24.343772,56.293103],[24.34386,56.29307],[24.343946,56.293029],[24.344027,56.292981],[24.344103,56.292924],[24.344174,56.292861],[24.344238,56.292792],[24.344295,56.292716],[24.358241,56.272468],[24.358256,56.272449],[24.35828,56.272453],[24.385831,56.278703],[24.385927,56.278719],[24.386023,56.278727],[24.38612,56.278725],[24.386216,56.278714],[24.386311,56.278694],[24.386403,56.278664],[24.386492,56.278626],[24.422583,56.261001],[24.422603,56.260993],[24.422625,56.260989],[24.453914,56.257833],[24.453938,56.257832],[24.453956,56.257849],[24.461595,56.265882],[24.461663,56.265948],[24.461738,56.266007],[24.461818,56.266059],[24.461903,56.266102],[24.461991,56.266138],[24.462083,56.266165],[24.462176,56.266183],[24.483586,56.269277],[24.483636,56.269287],[24.536767,56.282558],[24.536884,56.28258],[24.57962,56.287994],[24.579643,56.287998],[24.579644,56.288021],[24.579501,56.308955],[24.579505,56.309051],[24.579518,56.309146],[24.57954,56.30924],[24.583973,56.324561],[24.584003,56.324651],[24.584043,56.324738],[24.58409,56.32482],[24.584145,56.324898],[24.584207,56.32497],[24.584276,56.325036],[24.584351,56.325096],[24.584431,56.325147],[24.584515,56.325191],[24.604277,56.334289],[24.604299,56.334301],[24.60432,56.334314],[24.622879,56.347785],[24.622899,56.347801],[24.622908,56.347824],[24.628392,56.364077],[24.628409,56.364123],[24.630136,56.368527],[24.630174,56.368612],[24.630219,56.368693],[24.630272,56.368769],[24.630331,56.36884],[24.630397,56.368905],[24.630469,56.368963],[24.630545,56.369015],[24.630626,56.36906],[24.646184,56.376694],[24.64627,56.376732],[24.64636,56.376761],[24.646452,56.376781],[24.646546,56.376793],[24.64664,56.376796],[24.677778,56.3763],[24.6778,56.376301],[24.677821,56.376307],[24.703377,56.385392],[24.703399,56.3854],[24.703397,56.385423],[24.701715,56.400937],[24.701709,56.401033],[24.701713,56.401129],[24.701725,56.401225],[24.701747,56.401319],[24.701778,56.40141],[24.701818,56.401498],[24.701865,56.401581],[24.701921,56.40166],[24.701984,56.401733],[24.702053,56.4018],[24.702129,56.401859],[24.70221,56.401911],[24.702295,56.401955],[24.702385,56.401991],[24.702477,56.402018],[24.702572,56.402035],[24.702668,56.402044],[24.73069,56.403199],[24.73071,56.4032],[24.763476,56.403899],[24.763524,56.403903],[24.792974,56.407397],[24.792999,56.407401],[24.793019,56.407418],[24.80758,56.420814],[24.807653,56.420874],[24.80773,56.420928],[24.807812,56.420973],[24.807899,56.421011],[24.807988,56.421041],[24.80808,56.421062],[24.808173,56.421074],[24.808267,56.421078],[24.808361,56.421073],[24.808454,56.421058],[24.808545,56.421036],[24.832578,56.413806],[24.8326,56.413801],[24.832622,56.413801],[24.858275,56.415498],[24.858298,56.415501],[24.858294,56.415524],[24.854375,56.430815],[24.854356,56.430907],[24.854346,56.431002],[24.854344,56.431096],[24.854352,56.431191],[24.854369,56.431284],[24.854394,56.431375],[24.854428,56.431463],[24.85447,56.431548],[24.854519,56.431629],[24.854577,56.431704],[24.854641,56.431774],[24.854711,56.431837],[24.854787,56.431894],[24.870823,56.442648],[24.870902,56.442696],[24.870985,56.442737],[24.891767,56.451657],[24.89186,56.451691],[24.891956,56.451717],[24.892054,56.451732],[24.892153,56.451738],[24.892252,56.451734],[24.892351,56.45172],[24.892447,56.451696],[24.918798,56.443839],[24.918892,56.443806],[24.918982,56.443764],[24.919067,56.443713],[24.919147,56.443653],[24.919221,56.443586],[24.919287,56.443513],[24.919346,56.443432],[24.919397,56.443347],[24.919439,56.443257],[24.919472,56.443163],[24.919495,56.443066],[24.919509,56.442967],[24.919512,56.442868],[24.919506,56.442769],[24.918016,56.429549],[24.918001,56.429451],[24.917975,56.429355],[24.91794,56.429263],[24.911409,56.414222],[24.911401,56.4142],[24.911417,56.414184],[24.927493,56.399306],[24.927506,56.399294],[24.941994,56.385405],[24.942005,56.385394],[24.95969,56.36791],[24.95971,56.367889],[24.973766,56.353149],[24.973832,56.353074],[24.973889,56.352992],[24.973938,56.352905],[24.973978,56.352813],[24.974009,56.352718],[24.97403,56.35262],[24.974041,56.352521],[24.974042,56.352421],[24.974033,56.352322],[24.971604,56.334827],[24.971601,56.3348],[24.971605,56.334773],[24.975695,56.313825],[24.975701,56.313801],[24.97572,56.313784],[24.99508,56.298515],[24.995101,56.298501],[24.995122,56.298488],[25.017566,56.287168],[25.017652,56.287119],[25.017733,56.287061],[25.017808,56.286996],[25.033282,56.272117],[25.033301,56.272101],[25.033323,56.272091],[25.05871,56.262349],[25.0588,56.262309],[25.058886,56.262261],[25.058967,56.262204],[25.059042,56.262139],[25.05911,56.262067],[25.059171,56.261989],[25.059224,56.261905],[25.059268,56.261817],[25.066492,56.245318],[25.066509,56.245282],[25.073726,56.231836],[25.07377,56.231744],[25.073804,56.231647],[25.073828,56.231548],[25.077101,56.214097],[25.080695,56.195625],[25.080701,56.195601],[25.080722,56.195586],[25.09988,56.183912],[25.0999,56.183901],[25.099923,56.183896],[25.13346,56.178007],[25.133539,56.177989],[25.164173,56.170007],[25.1642,56.170002],[25.164228,56.170002],[25.195373,56.172398],[25.195399,56.172401],[25.195425,56.172408],[25.22349,56.180737],[25.223595,56.180762],[25.223702,56.180776],[25.223809,56.180778],[25.223917,56.180769],[25.252098,56.176729],[25.252197,56.176709],[25.252293,56.17668],[25.252386,56.176642],[25.252475,56.176594],[25.271822,56.164847],[25.271897,56.164796],[25.271968,56.164739],[25.29018,56.148517],[25.2902,56.148501],[25.290225,56.148494],[25.320677,56.142104],[25.3207,56.142101],[25.320722,56.142103],[25.35505,56.147692],[25.365556,56.154444],[25.171667,56.479444],[25.546667,56.853889],[25.254167,57.105833],[24.356389,57.874444],[24.261111,57.917222],[24.209444,57.899167],[23.601111,57.899167],[23.648611,57.782778],[23.582222,57.669722],[23.406111,57.593889],[23.180833,57.586389]]]]},"properties":{"id":"EV-TMA-AH","minFL":95,"maxFL":285}},{"type":"Feature","geometry":{"type":"MultiPolygon","coordinates":[[[[23.22389,56.9425],[23.223897,56.942476],[23.29708,56.725136],[23.297107,56.725043],[23.297124,56.724947],[23.297132,56.724851],[23.29713,56.724754],[23.29712,56.724658],[23.2971,56.724563],[23.29707,56.72447],[23.297033,56.724381],[23.296986,56.724296],[23.296932,56.724216],[23.29687,56.724141],[23.296801,56.724073],[23.296726,56.724012],[23.296645,56.723958],[23.29656,56.723913],[23.29647,56.723876],[23.296377,56.723847],[23.296283,56.723828],[23.296186,56.723818],[23.295892,56.723802],[23.295871,56.7238],[23.295885,56.723784],[23.30229,56.717459],[23.302297,56.717452],[23.308913,56.711176],[23.308921,56.711169],[23.315734,56.704957],[23.315741,56.70495],[23.322749,56.698803],[23.322756,56.698797],[23.329956,56.692717],[23.329963,56.692712],[23.337353,56.686701],[23.33736,56.686696],[23.344937,56.680756],[23.344944,56.680751],[23.352707,56.674885],[23.352714,56.67488],[23.36066,56.669088],[23.360667,56.669083],[23.368794,56.663368],[23.3688,56.663363],[23.377105,56.657726],[23.377111,56.657722],[23.385591,56.652164],[23.385598,56.65216],[23.394251,56.646684],[23.394257,56.64668],[23.40308,56.641287],[23.403087,56.641283],[23.412077,56.635976],[23.412084,56.635972],[23.421239,56.63075],[23.421245,56.630747],[23.430562,56.625613],[23.430568,56.625609],[23.440045,56.620565],[23.440051,56.620562],[23.449684,56.615608],[23.44969,56.615605],[23.459475,56.610744],[23.459481,56.610741],[23.469417,56.605974],[23.469423,56.605971],[23.479507,56.601299],[23.479513,56.601296],[23.48974,56.596721],[23.489746,56.596718],[23.500115,56.592241],[23.500121,56.592239],[23.510628,56.587861],[23.510634,56.587858],[23.521275,56.583581],[23.521281,56.583579],[23.532054,56.579404],[23.53206,56.579402],[23.542962,56.57533],[23.542967,56.575328],[23.553994,56.57136],[23.554,56.571358],[23.565149,56.567496],[23.565154,56.567494],[23.576421,56.563739],[23.576427,56.563737],[23.587809,56.560089],[23.587815,56.560088],[23.599309,56.556549],[23.599314,56.556548],[23.610917,56.553119],[23.610922,56.553118],[23.622629,56.5498],[23.622635,56.549798],[23.634443,56.546593],[23.634448,56.546591],[23.646355,56.543499],[23.64636,56.543497],[23.658361,56.540518],[23.658366,56.540517],[23.670457,56.537653],[23.670463,56.537652],[23.682641,56.534904],[23.682646,56.534903],[23.694908,56.532271],[23.694913,56.532269],[23.707255,56.529754],[23.70726,56.529753],[23.719678,56.527356],[23.719683,56.527355],[23.732173,56.525077],[23.732178,56.525076],[23.744738,56.522917],[23.744742,56.522916],[23.757367,56.520877],[23.757372,56.520876],[23.770065,56.518957],[23.782813,56.517159],[23.795615,56.515482],[23.808467,56.513928],[23.821365,56.512496],[23.834305,56.511188],[23.847284,56.510003],[23.860298,56.508942],[23.873336,56.508005],[23.873341,56.508005],[24.572198,56.465279],[24.572221,56.465279],[24.572228,56.465302],[24.588888,56.528609],[24.58889,56.528614],[24.606667,56.594725],[24.617499,56.635828],[24.617501,56.635839],[24.658048,56.783027],[24.658054,56.783056],[24.658057,56.783085],[24.659997,56.838805],[24.660004,56.838888],[24.660017,56.838972],[24.682778,56.949443],[24.682778,56.949445],[24.691389,56.990832],[24.691389,56.990834],[24.705277,57.05694],[24.705279,57.056949],[24.721939,57.132754],[24.721943,57.132777],[24.721921,57.132779],[24.615605,57.139566],[24.615513,57.139576],[24.615422,57.139595],[24.615333,57.139623],[24.615247,57.139658],[24.615164,57.139701],[24.615086,57.139752],[24.615013,57.13981],[24.60819,57.145744],[24.608183,57.14575],[24.600909,57.151834],[24.600902,57.15184],[24.593431,57.157855],[24.593423,57.15786],[24.585757,57.163803],[24.58575,57.163808],[24.577891,57.169677],[24.577884,57.169682],[24.569834,57.175475],[24.569827,57.17548],[24.56159,57.181196],[24.561583,57.1812],[24.55316,57.186837],[24.553153,57.186841],[24.544547,57.192397],[24.54454,57.192401],[24.535754,57.197874],[24.535747,57.197878],[24.526782,57.203267],[24.526776,57.203271],[24.517636,57.208573],[24.51763,57.208577],[24.508318,57.213791],[24.508312,57.213795],[24.49883,57.21892],[24.498824,57.218923],[24.489177,57.223958],[24.48917,57.223961],[24.479359,57.228902],[24.479352,57.228905],[24.469381,57.233753],[24.469374,57.233756],[24.459245,57.238507],[24.459239,57.23851],[24.448955,57.243165],[24.448949,57.243167],[24.438513,57.247723],[24.438507,57.247726],[24.427924,57.252182],[24.427918,57.252184],[24.41719,57.256539],[24.417184,57.256541],[24.406314,57.260793],[24.406308,57.260795],[24.395301,57.264943],[24.395295,57.264945],[24.384152,57.268986],[24.384147,57.268988],[24.372873,57.272924],[24.372867,57.272926],[24.361465,57.276753],[24.36146,57.276755],[24.349934,57.280473],[24.349928,57.280475],[24.338281,57.284083],[24.338276,57.284084],[24.326512,57.287581],[24.326507,57.287582],[24.31463,57.290966],[24.314624,57.290968],[24.302637,57.294238],[24.302632,57.294239],[24.290539,57.297395],[24.290534,57.297396],[24.278339,57.300436],[24.278333,57.300437],[24.26604,57.30336],[24.266035,57.303362],[24.253647,57.306167],[24.253642,57.306169],[24.241163,57.308856],[24.241158,57.308857],[24.228593,57.311425],[24.228587,57.311426],[24.215939,57.313874],[24.215934,57.313875],[24.203207,57.316202],[24.203202,57.316203],[24.1904,57.318408],[24.190395,57.318409],[24.177522,57.320492],[24.177517,57.320493],[24.164577,57.322453],[24.164572,57.322454],[24.151563,57.324292],[24.138496,57.326005],[24.125376,57.327593],[24.112205,57.329056],[24.098987,57.330394],[24.085728,57.331605],[24.07243,57.33269],[24.059099,57.333648],[24.045739,57.334479],[24.032352,57.335183],[24.018945,57.335758],[24.005521,57.336207],[23.992084,57.336527],[23.978639,57.336719],[23.965189,57.336783],[23.951739,57.336719],[23.938294,57.336527],[23.924857,57.336207],[23.911433,57.335758],[23.898025,57.335182],[23.884639,57.334479],[23.871279,57.333647],[23.857947,57.33269],[23.84465,57.331605],[23.83139,57.330393],[23.818173,57.329055],[23.805002,57.327592],[23.791881,57.326004],[23.778815,57.32429],[23.765815,57.322454],[23.76581,57.322453],[23.752871,57.320493],[23.752866,57.320492],[23.739993,57.318409],[23.739988,57.318408],[23.727186,57.316203],[23.727181,57.316202],[23.714454,57.313875],[23.714449,57.313874],[23.7018,57.311426],[23.701795,57.311425],[23.68923,57.308857],[23.689224,57.308856],[23.676746,57.306169],[23.676741,57.306167],[23.664353,57.303362],[23.664347,57.30336],[23.652054,57.300437],[23.652049,57.300436],[23.639854,57.297396],[23.639848,57.297395],[23.627755,57.294239],[23.62775,57.294238],[23.615763,57.290968],[23.615758,57.290966],[23.603881,57.287582],[23.603875,57.287581],[23.592112,57.284084],[23.592106,57.284083],[23.580459,57.280475],[23.580454,57.280473],[23.568928,57.276755],[23.568922,57.276753],[23.557521,57.272926],[23.557515,57.272924],[23.546241,57.268988],[23.546235,57.268986],[23.535093,57.264945],[23.535087,57.264943],[23.524079,57.260795],[23.524073,57.260793],[23.513204,57.256541],[23.513198,57.256539],[23.50247,57.252184],[23.502464,57.252182],[23.491881,57.247726],[23.491874,57.247723],[23.481439,57.243167],[23.481433,57.243165],[23.471149,57.23851],[23.471143,57.238507],[23.461013,57.233756],[23.461007,57.233753],[23.451035,57.228905],[23.451029,57.228902],[23.441218,57.223961],[23.441211,57.223958],[23.431564,57.218923],[23.431557,57.21892],[23.422076,57.213795],[23.42207,57.213791],[23.412758,57.208577],[23.412751,57.208573],[23.403612,57.203271],[23.403605,57.203267],[23.394641,57.197878],[23.394634,57.197874],[23.385848,57.192401],[23.385841,57.192397],[23.377235,57.186841],[23.377228,57.186837],[23.368805,57.1812],[23.368798,57.181196],[23.36056,57.17548],[23.360553,57.175475],[23.352504,57.169682],[23.352497,57.169677],[23.344638,57.163808],[23.344631,57.163803],[23.336964,57.15786],[23.336957,57.157855],[23.329486,57.15184],[23.329479,57.151834],[23.322205,57.14575],[23.322197,57.145744],[23.315123,57.139591],[23.315116,57.139584],[23.308243,57.133366],[23.308236,57.133359],[23.301567,57.127076],[23.301559,57.127069],[23.295095,57.120724],[23.295088,57.120716],[23.288832,57.114311],[23.288824,57.114303],[23.282777,57.107839],[23.28277,57.107831],[23.276934,57.101311],[23.276926,57.101302],[23.271303,57.094728],[23.271296,57.094719],[23.265886,57.088092],[23.265879,57.088083],[23.260697,57.081421],[23.260685,57.081403],[23.260706,57.081407],[23.261414,57.081569],[23.261511,57.081586],[23.26161,57.081594],[23.261708,57.081591],[23.261806,57.08158],[23.261902,57.081558],[23.261996,57.081528],[23.262086,57.081488],[23.262172,57.081439],[23.262252,57.081383],[23.262327,57.081318],[23.262395,57.081247],[23.262455,57.081169],[23.262508,57.081086],[23.262552,57.080998],[23.262588,57.080906],[23.262614,57.080811],[23.26263,57.080714],[23.262637,57.080616],[23.262635,57.080517],[23.262622,57.08042],[23.2626,57.080324],[23.223896,56.942524],[23.22389,56.9425]]]]},"properties":{"id":"EV-TMA-B","minFL":15,"maxFL":95}}]}